CCSDS_OMM_VERS = 2.0
CREATION_DATE  = 
ORIGINATOR     = 

OBJECT_NAME    = AQUA
OBJECT_ID      = 2002-022A
CENTER_NAME    = EARTH
REF_FRAME      = TEME
TIME_SYSTEM    = UTC
MEAN_ELEMENT_THEORY = SGP/SGP4

EPOCH          = 2026-04-01T11:27:31.221216
MEAN_MOTION    = 14.62028798
ECCENTRICITY   = .0001276
INCLINATION    = 98.4213
RA_OF_ASC_NODE = 59.2642
ARG_OF_PERICENTER = 116.7022
MEAN_ANOMALY   = 317.3309

EPHEMERIS_TYPE = 0
CLASSIFICATION_TYPE = U
NORAD_CAT_ID   = 27424
ELEMENT_SET_NO = 999
REV_AT_EPOCH   = 27206
BSTAR          = .22518E-3
MEAN_MOTION_DOT = .108E-4
MEAN_MOTION_DDOT = 0

CCSDS_OMM_VERS = 2.0
CREATION_DATE  = 
ORIGINATOR     = 

OBJECT_NAME    = CZ-4B R/B
OBJECT_ID      = 2002-024C
CENTER_NAME    = EARTH
REF_FRAME      = TEME
TIME_SYSTEM    = UTC
MEAN_ELEMENT_THEORY = SGP/SGP4

EPOCH          = 2026-04-01T03:22:47.703360
MEAN_MOTION    = 14.14551660
ECCENTRICITY   = .0049376
INCLINATION    = 98.8790
RA_OF_ASC_NODE = 144.4295
ARG_OF_PERICENTER = 320.1745
MEAN_ANOMALY   = 97.7930

EPHEMERIS_TYPE = 0
CLASSIFICATION_TYPE = U
NORAD_CAT_ID   = 27432
ELEMENT_SET_NO = 999
REV_AT_EPOCH   = 23241
BSTAR          = .55316E-4
MEAN_MOTION_DOT = .63E-6
MEAN_MOTION_DDOT = 0

CCSDS_OMM_VERS = 2.0
CREATION_DATE  = 
ORIGINATOR     = 

OBJECT_NAME    = MIDORI II (ADEOS-II)
OBJECT_ID      = 2002-056A
CENTER_NAME    = EARTH
REF_FRAME      = TEME
TIME_SYSTEM    = UTC
MEAN_ELEMENT_THEORY = SGP/SGP4

EPOCH          = 2026-04-01T09:57:44.994240
MEAN_MOTION    = 14.29302312
ECCENTRICITY   = .0000553
INCLINATION    = 98.7808
RA_OF_ASC_NODE = 50.0554
ARG_OF_PERICENTER = 20.7542
MEAN_ANOMALY   = 339.3661

EPHEMERIS_TYPE = 0
CLASSIFICATION_TYPE = U
NORAD_CAT_ID   = 27597
ELEMENT_SET_NO = 999
REV_AT_EPOCH   = 21354
BSTAR          = .15039E-3
MEAN_MOTION_DOT = .337E-5
MEAN_MOTION_DDOT = 0

CCSDS_OMM_VERS = 2.0
CREATION_DATE  = 
ORIGINATOR     = 

OBJECT_NAME    = H-2A R/B
OBJECT_ID      = 2002-056E
CENTER_NAME    = EARTH
REF_FRAME      = TEME
TIME_SYSTEM    = UTC
MEAN_ELEMENT_THEORY = SGP/SGP4

EPOCH          = 2026-04-01T09:33:10.829664
MEAN_MOTION    = 14.33776140
ECCENTRICITY   = .0071423
INCLINATION    = 98.3242
RA_OF_ASC_NODE = 50.9045
ARG_OF_PERICENTER = 93.8405
MEAN_ANOMALY   = 19.2760

EPHEMERIS_TYPE = 0
CLASSIFICATION_TYPE = U
NORAD_CAT_ID   = 27601
ELEMENT_SET_NO = 999
REV_AT_EPOCH   = 21736
BSTAR          = .12904E-3
MEAN_MOTION_DOT = .328E-5
MEAN_MOTION_DDOT = 0

CCSDS_OMM_VERS = 2.0
CREATION_DATE  = 
ORIGINATOR     = 

OBJECT_NAME    = CZ-4B R/B
OBJECT_ID      = 2003-049C
CENTER_NAME    = EARTH
REF_FRAME      = TEME
TIME_SYSTEM    = UTC
MEAN_ELEMENT_THEORY = SGP/SGP4

EPOCH          = 2026-04-01T10:05:42.311040
MEAN_MOTION    = 14.55040503
ECCENTRICITY   = .0048504
INCLINATION    = 98.6894
RA_OF_ASC_NODE = 87.2207
ARG_OF_PERICENTER = 161.0474
MEAN_ANOMALY   = 199.2541

EPHEMERIS_TYPE = 0
CLASSIFICATION_TYPE = U
NORAD_CAT_ID   = 28059
ELEMENT_SET_NO = 999
REV_AT_EPOCH   = 18990
BSTAR          = .10072E-3
MEAN_MOTION_DOT = .389E-5
MEAN_MOTION_DDOT = 0

CCSDS_OMM_VERS = 2.0
CREATION_DATE  = 
ORIGINATOR     = 

OBJECT_NAME    = CZ-2C R/B
OBJECT_ID      = 2004-012C
CENTER_NAME    = EARTH
REF_FRAME      = TEME
TIME_SYSTEM    = UTC
MEAN_ELEMENT_THEORY = SGP/SGP4

EPOCH          = 2026-04-01T04:01:02.607456
MEAN_MOTION    = 15.67342443
ECCENTRICITY   = .0013542
INCLINATION    = 97.7179
RA_OF_ASC_NODE = 158.6306
ARG_OF_PERICENTER = 220.9226
MEAN_ANOMALY   = 139.1019

EPHEMERIS_TYPE = 0
CLASSIFICATION_TYPE = U
NORAD_CAT_ID   = 28222
ELEMENT_SET_NO = 999
REV_AT_EPOCH   = 20779
BSTAR          = .69486E-3
MEAN_MOTION_DOT = .75596E-3
MEAN_MOTION_DDOT = 0

CCSDS_OMM_VERS = 2.0
CREATION_DATE  = 
ORIGINATOR     = 

OBJECT_NAME    = SL-16 R/B
OBJECT_ID      = 2004-021B
CENTER_NAME    = EARTH
REF_FRAME      = TEME
TIME_SYSTEM    = UTC
MEAN_ELEMENT_THEORY = SGP/SGP4

EPOCH          = 2026-04-01T12:13:27.622272
MEAN_MOTION    = 14.14597396
ECCENTRICITY   = .0005199
INCLINATION    = 71.0011
RA_OF_ASC_NODE = 184.6051
ARG_OF_PERICENTER = 341.4090
MEAN_ANOMALY   = 18.6841

EPHEMERIS_TYPE = 0
CLASSIFICATION_TYPE = U
NORAD_CAT_ID   = 28353
ELEMENT_SET_NO = 999
REV_AT_EPOCH   = 12606
BSTAR          = .19963E-3
MEAN_MOTION_DOT = .336E-5
MEAN_MOTION_DDOT = 0

CCSDS_OMM_VERS = 2.0
CREATION_DATE  = 
ORIGINATOR     = 

OBJECT_NAME    = CZ-4B R/B
OBJECT_ID      = 2004-035C
CENTER_NAME    = EARTH
REF_FRAME      = TEME
TIME_SYSTEM    = UTC
MEAN_ELEMENT_THEORY = SGP/SGP4

EPOCH          = 2026-04-01T02:11:11.167872
MEAN_MOTION    = 15.29461146
ECCENTRICITY   = .0030118
INCLINATION    = 97.3460
RA_OF_ASC_NODE = 125.0666
ARG_OF_PERICENTER = 247.6525
MEAN_ANOMALY   = 112.1523

EPHEMERIS_TYPE = 0
CLASSIFICATION_TYPE = U
NORAD_CAT_ID   = 28415
ELEMENT_SET_NO = 999
REV_AT_EPOCH   = 18333
BSTAR          = .36673E-3
MEAN_MOTION_DOT = .10545E-3
MEAN_MOTION_DDOT = 0

CCSDS_OMM_VERS = 2.0
CREATION_DATE  = 
ORIGINATOR     = 

OBJECT_NAME    = CZ-2C R/B
OBJECT_ID      = 2004-046B
CENTER_NAME    = EARTH
REF_FRAME      = TEME
TIME_SYSTEM    = UTC
MEAN_ELEMENT_THEORY = SGP/SGP4

EPOCH          = 2026-04-01T11:37:27.014016
MEAN_MOTION    = 14.27000615
ECCENTRICITY   = .0140631
INCLINATION    = 98.1978
RA_OF_ASC_NODE = 5.0480
ARG_OF_PERICENTER = 87.4871
MEAN_ANOMALY   = 274.2402

EPHEMERIS_TYPE = 0
CLASSIFICATION_TYPE = U
NORAD_CAT_ID   = 28480
ELEMENT_SET_NO = 999
REV_AT_EPOCH   = 11175
BSTAR          = .88419E-4
MEAN_MOTION_DOT = .199E-5
MEAN_MOTION_DDOT = 0

CCSDS_OMM_VERS = 2.0
CREATION_DATE  = 
ORIGINATOR     = 

OBJECT_NAME    = ARIANE 5 R/B
OBJECT_ID      = 2004-049H
CENTER_NAME    = EARTH
REF_FRAME      = TEME
TIME_SYSTEM    = UTC
MEAN_ELEMENT_THEORY = SGP/SGP4

EPOCH          = 2026-04-01T11:17:08.178720
MEAN_MOTION    = 14.85308049
ECCENTRICITY   = .0082867
INCLINATION    = 98.2659
RA_OF_ASC_NODE = 260.7855
ARG_OF_PERICENTER = 277.3601
MEAN_ANOMALY   = 81.8201

EPHEMERIS_TYPE = 0
CLASSIFICATION_TYPE = U
NORAD_CAT_ID   = 28499
ELEMENT_SET_NO = 999
REV_AT_EPOCH   = 14917
BSTAR          = .1111E-3
MEAN_MOTION_DOT = .949E-5
MEAN_MOTION_DDOT = 0

CCSDS_OMM_VERS = 2.0
CREATION_DATE  = 
ORIGINATOR     = 

OBJECT_NAME    = CZ-2D R/B
OBJECT_ID      = 2005-024B
CENTER_NAME    = EARTH
REF_FRAME      = TEME
TIME_SYSTEM    = UTC
MEAN_ELEMENT_THEORY = SGP/SGP4

EPOCH          = 2026-04-01T00:21:55.927296
MEAN_MOTION    = 15.62242195
ECCENTRICITY   = .0001937
INCLINATION    = 97.3567
RA_OF_ASC_NODE = 107.0120
ARG_OF_PERICENTER = 311.3687
MEAN_ANOMALY   = 48.7405

EPHEMERIS_TYPE = 0
CLASSIFICATION_TYPE = U
NORAD_CAT_ID   = 28738
ELEMENT_SET_NO = 999
REV_AT_EPOCH   = 14326
BSTAR          = .62221E-3
MEAN_MOTION_DOT = .5493E-3
MEAN_MOTION_DDOT = 0

CCSDS_OMM_VERS = 2.0
CREATION_DATE  = 
ORIGINATOR     = 

OBJECT_NAME    = ALOS (DAICHI)
OBJECT_ID      = 2006-002A
CENTER_NAME    = EARTH
REF_FRAME      = TEME
TIME_SYSTEM    = UTC
MEAN_ELEMENT_THEORY = SGP/SGP4

EPOCH          = 2026-04-01T09:01:44.657184
MEAN_MOTION    = 14.69879379
ECCENTRICITY   = .0000975
INCLINATION    = 98.1254
RA_OF_ASC_NODE = 47.2243
ARG_OF_PERICENTER = 112.0436
MEAN_ANOMALY   = 248.0873

EPHEMERIS_TYPE = 0
CLASSIFICATION_TYPE = U
NORAD_CAT_ID   = 28931
ELEMENT_SET_NO = 999
REV_AT_EPOCH   = 7681
BSTAR          = .25992E-3
MEAN_MOTION_DOT = .1505E-4
MEAN_MOTION_DDOT = 0

