AQUA                    
1 27424U 02022A   26091.47744469  .00001080  00000+0  22518-3 0  9997
2 27424  98.4213  59.2642 0001276 116.7022 317.3309 14.62028798272061
CZ-4B R/B               
1 27432U 02024C   26091.14082990  .00000063  00000+0  55316-4 0  9999
2 27432  98.8790 144.4295 0049376 320.1745  97.7930 14.14551660232411
MIDORI II (ADEOS-II)    
1 27597U 02056A   26091.41510410  .00000337  00000+0  15039-3 0  9990
2 27597  98.7808  50.0554 0000553  20.7542 339.3661 14.29302312213547
H-2A R/B                
1 27601U 02056E   26091.39804201  .00000328  00000+0  12904-3 0  9995
2 27601  98.3242  50.9045 0071423  93.8405  19.2760 14.33776140217365
CZ-4B R/B               
1 28059U 03049C   26091.42062860  .00000389  00000+0  10072-3 0  9998
2 28059  98.6894  87.2207 0048504 161.0474 199.2541 14.55040503189905
CZ-2C R/B               
1 28222U 04012C   26091.16739129  .00075596  00000+0  69486-3 0  9996
2 28222  97.7179 158.6306 0013542 220.9226 139.1019 15.67342443207793
SL-16 R/B               
1 28353U 04021B   26091.50934748  .00000336  00000+0  19963-3 0  9998
2 28353  71.0011 184.6051 0005199 341.4090  18.6841 14.14597396126065
CZ-4B R/B               
1 28415U 04035C   26091.09110148  .00010545  00000+0  36673-3 0  9996
2 28415  97.3460 125.0666 0030118 247.6525 112.1523 15.29461146183333
CZ-2C R/B               
1 28480U 04046B   26091.48434044  .00000199  00000+0  88419-4 0  9997
2 28480  98.1978   5.0480 0140631  87.4871 274.2402 14.27000615111755
ARIANE 5 R/B            
1 28499U 04049H   26091.47023355  .00000949  00000+0  11110-3 0  9994
2 28499  98.2659 260.7855 0082867 277.3601  81.8201 14.85308049149177
CZ-2D R/B               
1 28738U 05024B   26091.01523064  .00054930  00000+0  62221-3 0  9994
2 28738  97.3567 107.0120 0001937 311.3687  48.7405 15.62242195143268
ALOS (DAICHI)           
1 28931U 06002A   26091.37621131  .00001505  00000+0  25992-3 0  9993
2 28931  98.1254  47.2243 0000975 112.0436 248.0873 14.69879379 76811
